start=new Date('2021-10-30T00:00:00.000Z').valueOf();
sats=[{"PERIOD":"95.592","DECAY_DATE":null,"BSTAR":"0.00017233000000","CENTER_NAME":"EARTH","NORAD_CAT_ID":"46573","RCS_SIZE":"LARGE","REF_FRAME":"TEME","ARG_OF_PERICENTER":"85.1154","MEAN_MOTION_DOT":"0.00002286","COUNTRY_CODE":"US","TLE_LINE1":"1 46573U 20070AT  21302.88828614  .00002286  00000-0  17233-3 0  9994","EPHEMERIS_TYPE":"0","SITE":"AFETR","TLE_LINE2":"2 46573  53.0537 107.4888 0001627  85.1154 275.0020 15.06404109 59792","RA_OF_ASC_NODE":"107.4888","SEMIMAJOR_AXIS":"6925.336","ELEMENT_SET_NO":"999","REV_AT_EPOCH":"5979","EPOCH":"2021-10-29T21:19:07.922496","CLASSIFICATION_TYPE":"U","MEAN_MOTION":"15.06404109","PERIAPSIS":"546.074","GP_ID":"188467955","OBJECT_TYPE":"PAYLOAD","MEAN_ANOMALY":"275.0020","LAUNCH_DATE":"2020-10-06","OBJECT_ID":"2020-070AT","MEAN_ELEMENT_THEORY":"SGP4","FILE":"3191844","MEAN_MOTION_DDOT":"0.0000000000000","TIME_SYSTEM":"UTC","INCLINATION":"53.0537","APOAPSIS":"548.328","OBJECT_NAME":"STARLINK-1650","ECCENTRICITY":"0.00016270"},{"EPOCH":"2021-10-29T19:22:22.367712","CLASSIFICATION_TYPE":"U","SEMIMAJOR_AXIS":"6925.356","ELEMENT_SET_NO":"999","REV_AT_EPOCH":"5978","RA_OF_ASC_NODE":"107.8633","EPHEMERIS_TYPE":"0","SITE":"AFETR","TLE_LINE2":"2 46574  53.0539 107.8633 0001633  93.5200 266.5976 15.06397508 59787","ARG_OF_PERICENTER":"93.5200","MEAN_MOTION_DOT":"-0.00000337","TLE_LINE1":"1 46574U 20070AU  21302.80720333 -.00000337  00000-0 -36932-5 0  9992","COUNTRY_CODE":"US","REF_FRAME":"TEME","NORAD_CAT_ID":"46574","CENTER_NAME":"EARTH","RCS_SIZE":"LARGE","BSTAR":"-0.00000369320000","PERIOD":"95.592","DECAY_DATE":null,"OBJECT_NAME":"STARLINK-1660","ECCENTRICITY":"0.00016330","INCLINATION":"53.0539","APOAPSIS":"548.352","MEAN_MOTION_DDOT":"0.0000000000000","TIME_SYSTEM":"UTC","MEAN_ELEMENT_THEORY":"SGP4","FILE":"3191844","LAUNCH_DATE":"2020-10-06","OBJECT_ID":"2020-070AU","MEAN_ANOMALY":"266.5976","MEAN_MOTION":"15.06397508","OBJECT_TYPE":"PAYLOAD","PERIAPSIS":"546.090","GP_ID":"188468710"},{"MEAN_ANOMALY":"275.5248","LAUNCH_DATE":"2020-10-06","OBJECT_ID":"2020-070AV","MEAN_MOTION":"15.06403518","GP_ID":"188468955","PERIAPSIS":"546.240","OBJECT_TYPE":"PAYLOAD","MEAN_MOTION_DDOT":"0.0000000000000","TIME_SYSTEM":"UTC","FILE":"3191844","MEAN_ELEMENT_THEORY":"SGP4","ECCENTRICITY":"0.00013900","OBJECT_NAME":"STARLINK-1675","INCLINATION":"53.0544","APOAPSIS":"548.165","BSTAR":"0.00013625000000","PERIOD":"95.592","DECAY_DATE":null,"REF_FRAME":"TEME","CENTER_NAME":"EARTH","NORAD_CAT_ID":"46575","RCS_SIZE":"LARGE","SITE":"AFETR","EPHEMERIS_TYPE":"0","TLE_LINE2":"2 46575  53.0544  82.8962 0001390  84.5899 275.5248 15.06403518 60126","ARG_OF_PERICENTER":"84.5899","MEAN_MOTION_DOT":"0.00001749","TLE_LINE1":"1 46575U 20070AV  21302.79933797  .00001749  00000-0  13625-3 0  9999","COUNTRY_CODE":"US","SEMIMAJOR_AXIS":"6925.338","REV_AT_EPOCH":"6012","ELEMENT_SET_NO":"999","EPOCH":"2021-10-29T19:11:02.800608","CLASSIFICATION_TYPE":"U","RA_OF_ASC_NODE":"82.8962"},{"RA_OF_ASC_NODE":"107.8878","ELEMENT_SET_NO":"999","SEMIMAJOR_AXIS":"6925.305","REV_AT_EPOCH":"5978","CLASSIFICATION_TYPE":"U","EPOCH":"2021-10-29T19:11:44.685600","MEAN_MOTION_DOT":"0.00000756","ARG_OF_PERICENTER":"93.1000","COUNTRY_CODE":"US","TLE_LINE1":"1 46576U 20070AW  21302.79982275  .00000756  00000-0  69618-4 0  9996","SITE":"AFETR","EPHEMERIS_TYPE":"0","TLE_LINE2":"2 46576  53.0535 107.8878 0002025  93.1000 267.0221 15.06414310 59786","CENTER_NAME":"EARTH","NORAD_CAT_ID":"46576","RCS_SIZE":"LARGE","REF_FRAME":"TEME","PERIOD":"95.591","DECAY_DATE":null,"BSTAR":"0.00006961800000","INCLINATION":"53.0535","APOAPSIS":"548.572","ECCENTRICITY":"0.00020250","OBJECT_NAME":"STARLINK-1677","FILE":"3191844","MEAN_ELEMENT_THEORY":"SGP4","MEAN_MOTION_DDOT":"0.0000000000000","TIME_SYSTEM":"UTC","MEAN_MOTION":"15.06414310","PERIAPSIS":"545.767","GP_ID":"188467709","OBJECT_TYPE":"PAYLOAD","MEAN_ANOMALY":"267.0221","LAUNCH_DATE":"2020-10-06","OBJECT_ID":"2020-070AW"},{"FILE":"3191844","MEAN_ELEMENT_THEORY":"SGP4","MEAN_MOTION_DDOT":"0.0000000000000","TIME_SYSTEM":"UTC","INCLINATION":"53.0546","APOAPSIS":"548.380","ECCENTRICITY":"0.00017270","OBJECT_NAME":"STARLINK-1682","MEAN_MOTION":"15.06409736","OBJECT_TYPE":"PAYLOAD","GP_ID":"188467456","PERIAPSIS":"545.988","OBJECT_ID":"2020-070AX","LAUNCH_DATE":"2020-10-06","MEAN_ANOMALY":"278.3308","MEAN_MOTION_DOT":"0.00002241","ARG_OF_PERICENTER":"81.7877","TLE_LINE1":"1 46577U 20070AX  21302.89566569  .00002241  00000-0  16928-3 0  9998","COUNTRY_CODE":"US","SITE":"AFETR","EPHEMERIS_TYPE":"0","TLE_LINE2":"2 46577  53.0546 107.4636 0001727  81.7877 278.3308 15.06409736 59798","RA_OF_ASC_NODE":"107.4636","CLASSIFICATION_TYPE":"U","EPOCH":"2021-10-29T21:29:45.515616","SEMIMAJOR_AXIS":"6925.319","REV_AT_EPOCH":"5979","ELEMENT_SET_NO":"999","PERIOD":"95.592","DECAY_DATE":null,"BSTAR":"0.00016928000000","NORAD_CAT_ID":"46577","CENTER_NAME":"EARTH","RCS_SIZE":"LARGE","REF_FRAME":"TEME"},{"COUNTRY_CODE":"US","TLE_LINE1":"1 46578U 20070AY  21302.80579696  .00000618  00000-0  60387-4 0  9990","MEAN_MOTION_DOT":"0.00000618","ARG_OF_PERICENTER":"90.6561","TLE_LINE2":"2 46578  53.0546  92.8706 0001501  90.6561 269.4600 15.06402724 59991","SITE":"AFETR","EPHEMERIS_TYPE":"0","RA_OF_ASC_NODE":"92.8706","REV_AT_EPOCH":"5999","SEMIMAJOR_AXIS":"6925.340","ELEMENT_SET_NO":"999","CLASSIFICATION_TYPE":"U","EPOCH":"2021-10-29T19:20:20.857344","DECAY_DATE":null,"PERIOD":"95.592","BSTAR":"0.00006038700000","RCS_SIZE":"LARGE","CENTER_NAME":"EARTH","NORAD_CAT_ID":"46578","REF_FRAME":"TEME","FILE":"3191844","MEAN_ELEMENT_THEORY":"SGP4","TIME_SYSTEM":"UTC","MEAN_MOTION_DDOT":"0.0000000000000","APOAPSIS":"548.245","INCLINATION":"53.0546","OBJECT_NAME":"STARLINK-1683","ECCENTRICITY":"0.00015010","GP_ID":"188468211","PERIAPSIS":"546.166","OBJECT_TYPE":"PAYLOAD","MEAN_MOTION":"15.06402724","LAUNCH_DATE":"2020-10-06","OBJECT_ID":"2020-070AY","MEAN_ANOMALY":"269.4600"},{"TLE_LINE2":"2 46579  53.0536 107.8300 0001593  86.5745 273.5426 15.06409342 59789","SITE":"AFETR","EPHEMERIS_TYPE":"0","TLE_LINE1":"1 46579U 20070AZ  21302.81457930  .00002720  00000-0  20141-3 0  9997","COUNTRY_CODE":"US","ARG_OF_PERICENTER":"86.5745","MEAN_MOTION_DOT":"0.00002720","EPOCH":"2021-10-29T19:32:59.651520","CLASSIFICATION_TYPE":"U","ELEMENT_SET_NO":"999","SEMIMAJOR_AXIS":"6925.320","REV_AT_EPOCH":"5978","RA_OF_ASC_NODE":"107.8300","BSTAR":"0.00020141000000","DECAY_DATE":null,"PERIOD":"95.592","REF_FRAME":"TEME","RCS_SIZE":"LARGE","NORAD_CAT_ID":"46579","CENTER_NAME":"EARTH","TIME_SYSTEM":"UTC","MEAN_MOTION_DDOT":"0.0000000000000","MEAN_ELEMENT_THEORY":"SGP4","FILE":"3191844","OBJECT_NAME":"STARLINK-1705","ECCENTRICITY":"0.00015930","APOAPSIS":"548.288","INCLINATION":"53.0536","OBJECT_ID":"2020-070AZ","LAUNCH_DATE":"2020-10-06","MEAN_ANOMALY":"273.5426","OBJECT_TYPE":"PAYLOAD","PERIAPSIS":"546.082","GP_ID":"188468456","MEAN_MOTION":"15.06409342"},{"DECAY_DATE":null,"PERIOD":"95.592","BSTAR":"0.00014242000000","RCS_SIZE":"LARGE","NORAD_CAT_ID":"46580","CENTER_NAME":"EARTH","REF_FRAME":"TEME","TLE_LINE1":"1 46580U 20070BA  21302.85880398  .00001841  00000-0  14242-3 0  9999","COUNTRY_CODE":"US","MEAN_MOTION_DOT":"0.00001841","ARG_OF_PERICENTER":"75.7376","TLE_LINE2":"2 46580  53.0539 107.6213 0001600  75.7376 284.3790 15.06403516 59796","EPHEMERIS_TYPE":"0","SITE":"AFETR","RA_OF_ASC_NODE":"107.6213","CLASSIFICATION_TYPE":"U","EPOCH":"2021-10-29T20:36:40.663872","ELEMENT_SET_NO":"999","SEMIMAJOR_AXIS":"6925.338","REV_AT_EPOCH":"5979","OBJECT_TYPE":"PAYLOAD","GP_ID":"188467210","PERIAPSIS":"546.095","MEAN_MOTION":"15.06403516","LAUNCH_DATE":"2020-10-06","MEAN_ANOMALY":"284.3790","OBJECT_ID":"2020-070BA","FILE":"3191844","MEAN_ELEMENT_THEORY":"SGP4","TIME_SYSTEM":"UTC","MEAN_MOTION_DDOT":"0.0000000000000","APOAPSIS":"548.311","INCLINATION":"53.0539","ECCENTRICITY":"0.00016000","OBJECT_NAME":"STARLINK-1708"},{"MEAN_MOTION":"15.06404758","GP_ID":"188467956","PERIAPSIS":"545.901","OBJECT_TYPE":"PAYLOAD","MEAN_ANOMALY":"281.3700","LAUNCH_DATE":"2020-10-06","OBJECT_ID":"2020-070BB","FILE":"3191844","MEAN_ELEMENT_THEORY":"SGP4","MEAN_MOTION_DDOT":"0.0000000000000","TIME_SYSTEM":"UTC","INCLINATION":"53.0544","APOAPSIS":"548.497","ECCENTRICITY":"0.00018740","OBJECT_NAME":"STARLINK-1712","PERIOD":"95.592","DECAY_DATE":null,"BSTAR":"-0.00000397820000","CENTER_NAME":"EARTH","NORAD_CAT_ID":"46581","RCS_SIZE":"LARGE","REF_FRAME":"TEME","ARG_OF_PERICENTER":"78.7499","MEAN_MOTION_DOT":"-0.00000341","TLE_LINE1":"1 46581U 20070BB  21302.69156770 -.00000341  00000-0 -39782-5 0  9996","COUNTRY_CODE":"US","EPHEMERIS_TYPE":"0","SITE":"AFETR","TLE_LINE2":"2 46581  53.0544 103.3626 0001874  78.7499 281.3700 15.06404758 59838","RA_OF_ASC_NODE":"103.3626","REV_AT_EPOCH":"5983","SEMIMAJOR_AXIS":"6925.334","ELEMENT_SET_NO":"999","EPOCH":"2021-10-29T16:35:51.449280","CLASSIFICATION_TYPE":"U"},{"MEAN_ANOMALY":"286.7518","LAUNCH_DATE":"2020-10-06","OBJECT_ID":"2020-070BC","MEAN_MOTION":"15.06410063","OBJECT_TYPE":"PAYLOAD","PERIAPSIS":"546.144","GP_ID":"188468711","MEAN_MOTION_DDOT":"0.0000000000000","TIME_SYSTEM":"UTC","FILE":"3191844","MEAN_ELEMENT_THEORY":"SGP4","OBJECT_NAME":"STARLINK-1728","ECCENTRICITY":"0.00015000","INCLINATION":"53.0548","APOAPSIS":"548.222","BSTAR":"0.00013563000000","PERIOD":"95.592","DECAY_DATE":null,"REF_FRAME":"TEME","NORAD_CAT_ID":"46582","CENTER_NAME":"EARTH","RCS_SIZE":"LARGE","SITE":"AFETR","EPHEMERIS_TYPE":"0","TLE_LINE2":"2 46582  53.0548 103.4204 0001500  73.3635 286.7518 15.06410063 59837","MEAN_MOTION_DOT":"0.00001740","ARG_OF_PERICENTER":"73.3635","TLE_LINE1":"1 46582U 20070BC  21302.68324168  .00001740  00000-0  13563-3 0  9993","COUNTRY_CODE":"US","CLASSIFICATION_TYPE":"U","EPOCH":"2021-10-29T16:23:52.081152","ELEMENT_SET_NO":"999","SEMIMAJOR_AXIS":"6925.318","REV_AT_EPOCH":"5983","RA_OF_ASC_NODE":"103.4204"}];
